{"epoch":1784762836,"count":18316,"objects":[{"id":"27844","name":"CUTE-1","type":"PAYLOAD","l1":"1 27844U 03031E   26203.02043421  .00000248  00000-0  12599-3 0  9994","l2":"2 27844  98.6746 211.1424 0010865  85.1990 275.0430 14.24354732196635"},{"id":"27848","name":"CUBESAT XI 4","type":"PAYLOAD","l1":"1 27848U 03031J   26202.46414799  .00000171  00000-0  94004-4 0  9992","l2":"2 27848  98.6777 210.2780 0010700 103.0346 257.2027 14.23636890196250"},{"id":"28895","name":"CUBESAT XI 5","type":"PAYLOAD","l1":"1 28895U 05043F   26202.37477685  .00000932  00000-0  15414-3 0  9995","l2":"2 28895  98.3024 358.7230 0015344  97.2573 263.0378 14.72712744106788"},{"id":"32785","name":"CUTE-1.7+APD 2","type":"PAYLOAD","l1":"1 32785U 08021C   26203.51168664  .00004854  00000-0  30490-3 0  9996","l2":"2 32785  97.8297 185.6775 0006938 268.2388  91.8046 15.09743996990527"},{"id":"32790","name":"CANX-2","type":"PAYLOAD","l1":"1 32790U 08021H   26203.37595391  .00002704  00000-0  19072-3 0  9992","l2":"2 32790  97.8662 183.8480 0008613 288.9356  71.0936 15.05835328990107"},{"id":"32791","name":"SEEDS","type":"PAYLOAD","l1":"1 32791U 08021J   26203.44081651  .00019519  00000-0  59788-3 0  9990","l2":"2 32791  97.7536 203.0544 0003833 141.9870 218.1643 15.33845449992692"},{"id":"35932","name":"SWISSCUBE","type":"PAYLOAD","l1":"1 35932U 09051B   26203.26604623  .00000760  00000-0  15943-3 0  9997","l2":"2 35932  98.3999 111.7611 0008091 100.3347 259.8766 14.62540212894286"},{"id":"35933","name":"BEESAT","type":"PAYLOAD","l1":"1 35933U 09051C   26203.49920290  .00000591  00000-0  12833-3 0  9991","l2":"2 35933  98.3927 111.5595 0006451 110.9506 249.2386 14.61769795894345"},{"id":"35935","name":"ITUPSAT 1","type":"PAYLOAD","l1":"1 35935U 09051E   26203.24702328  .00000571  00000-0  12771-3 0  9995","l2":"2 35935  98.4012 110.4576 0008467 123.6016 236.5993 14.60486031893852"},{"id":"36799","name":"TISAT 1","type":"PAYLOAD","l1":"1 36799U 10035E   26203.31405679  .00022110  00000-0  69642-3 0  9997","l2":"2 36799  98.0706 153.0175 0004834 106.5546 253.6226 15.32930011873081"},{"id":"39090","name":"STRAND 1","type":"PAYLOAD","l1":"1 39090U 13009E   26203.42364014  .00000224  00000-0  89597-4 0  9991","l2":"2 39090  98.3941  22.7940 0009711 121.7520 238.4615 14.37181962702120"},{"id":"39091","name":"BRITE-A TUGSAT-1","type":"PAYLOAD","l1":"1 39091U 13009F   26203.45182338  .00000130  00000-0  58610-4 0  9990","l2":"2 39091  98.4015  22.0181 0011122 130.7038 229.5117 14.36554561702112"},{"id":"39151","name":"NEE 01 PEGASUS","type":"PAYLOAD","l1":"1 39151U 13018B   26203.36676460  .00001993  00000-0  19333-3 0  9997","l2":"2 39151  98.1266 348.6916 0013480  52.7336 307.5110 14.93814372715958"},{"id":"39269","name":"POPACS 2","type":"PAYLOAD","l1":"1 39269U 13055E   26203.46027237  .00023697 -86363-6  38842-3 0  9995","l2":"2 39269  80.9905 103.7968 0414143  80.5757 284.2013 14.92251122668475"},{"id":"39270","name":"POPACS 3","type":"PAYLOAD","l1":"1 39270U 13055F   26202.94855447  .00010270  00000-0  24503-3 0  9990","l2":"2 39270  81.0010 191.4730 0547879 324.0661  32.4808 14.56772916643613"},{"id":"39417","name":"ZACUBE","type":"PAYLOAD","l1":"1 39417U 13066B   26201.86646474  .00001847  00000-0  14537-3 0  9999","l2":"2 39417  97.7999 164.3670 0044079 137.0238 223.4444 15.01347026685787"},{"id":"39423","name":"WNISAT 1","type":"PAYLOAD","l1":"1 39423U 13066H   26203.34700065  .00000844  00000-0  16065-3 0  9992","l2":"2 39423  97.7245 350.0154 0164193 120.9406 240.8049 14.58131047671859"},{"id":"39427","name":"TRITON 1","type":"PAYLOAD","l1":"1 39427U 13066M   26203.61333377  .00000944  00000-0  11790-3 0  9995","l2":"2 39427  97.8209 112.6092 0091122 118.2337 242.8112 14.81811910679335"},{"id":"39430","name":"GOMX 1","type":"PAYLOAD","l1":"1 39430U 13066Q   26203.52478678  .00000596  00000-0  96615-4 0  9996","l2":"2 39430  97.6470  41.7576 0127608 324.5849  34.6932 14.69552097675107"},{"id":"39440","name":"CUBEBUG 2","type":"PAYLOAD","l1":"1 39440U 13066AA  26203.29468735  .00002604  00000-0  24278-3 0  9991","l2":"2 39440  97.8917 152.4311 0055448 271.2491  88.2376 14.94001241682233"},{"id":"39441","name":"NEE 02 KRYSAOR","type":"PAYLOAD","l1":"1 39441U 13066AB  26203.27462208  .00001643  00000-0  18418-3 0  9990","l2":"2 39441  97.8896 142.2439 0064824 315.7839  43.8206 14.86759539681415"},{"id":"39444","name":"FUNCUBE 1","type":"PAYLOAD","l1":"1 39444U 13066AE  26203.38389968  .00007775  00000-0  47582-3 0  9992","l2":"2 39444  97.8301 175.5790 0038141  84.3797 276.1779 15.09891550684979"},{"id":"39446","name":"UWE-3","type":"PAYLOAD","l1":"1 39446U 13066AG  26202.83639828  .00003114  00000-0  26825-3 0  9996","l2":"2 39446  97.8727 159.1532 0047766 201.8178 158.1010 14.97233886682767"},{"id":"40020","name":"BRITE TORONTO","type":"PAYLOAD","l1":"1 40020U 14033L   26203.30056402  .00000873  00000-0  13812-3 0  9996","l2":"2 40020  97.9778 331.5896 0078997 163.5669 196.8127 14.72733175647388"},{"id":"40021","name":"DUCHIFAT 1","type":"PAYLOAD","l1":"1 40021U 14033M   26203.42803832  .00162629  00000-0  11920-2 0  9992","l2":"2 40021  98.0416 267.7633 0003730 227.4828 132.6119 15.72664069661278"},{"id":"40024","name":"NANOSAT C BR1","type":"PAYLOAD","l1":"1 40024U 14033Q   26203.08385036  .00018646  00000-0  59621-3 0  9998","l2":"2 40024  98.0713 238.5904 0005023  80.3934 279.7874 15.32485208659325"},{"id":"40025","name":"QB50P1","type":"PAYLOAD","l1":"1 40025U 14033R   26203.46981408  .00008347  00000-0  40484-3 0  9990","l2":"2 40025  98.0974 217.1032 0010553 103.6108 256.6300 15.18744167658385"},{"id":"40032","name":"QB50P2","type":"PAYLOAD","l1":"1 40032U 14033Y   26201.97438004  .00004626  00000-0  24766-3 0  9992","l2":"2 40032  98.0771 200.9707 0009145  67.6874 292.5326 15.15553719657789"},{"id":"40037","name":"PERSEUS M2","type":"PAYLOAD","l1":"1 40037U 14033AD  26203.59012610  .00000479  00000-0  48647-4 0  9995","l2":"2 40037  97.9976 154.8572 0011576 175.8007 184.3312 14.95595168656072"},{"id":"40039","name":"PERSEUS M1","type":"PAYLOAD","l1":"1 40039U 14033AF  26203.29260289  .00000731  00000-0  71062-4 0  9999","l2":"2 40039  97.9652 148.0056 0011466 173.4533 186.6839 14.95729514655884"}]}